[{"OBJECT_NAME":"PHISAT 2","OBJECT_ID":"2024-149C","EPOCH":"2026-03-09T18:55:12.732384","MEAN_MOTION":15.29548632,"ECCENTRICITY":0.00011753,"INCLINATION":97.3806,"RA_OF_ASC_NODE":148.6498,"ARG_OF_PERICENTER":168.623,"MEAN_ANOMALY":191.5037,"EPHEMERIS_TYPE":0,"CLASSIFICATION_TYPE":"U","NORAD_CAT_ID":60470,"ELEMENT_SET_NO":999,"REV_AT_EPOCH":8679,"BSTAR":0.00031420974,"MEAN_MOTION_DOT":8.925e-5,"MEAN_MOTION_DDOT":0},{"OBJECT_NAME":"STARLINK-32293","OBJECT_ID":"2024-183T","EPOCH":"2026-03-09T11:13:29.421696","MEAN_MOTION":15.30172137,"ECCENTRICITY":0.00015652,"INCLINATION":53.1615,"RA_OF_ASC_NODE":143.8124,"ARG_OF_PERICENTER":89.05,"MEAN_ANOMALY":271.068,"EPHEMERIS_TYPE":0,"CLASSIFICATION_TYPE":"U","NORAD_CAT_ID":61526,"ELEMENT_SET_NO":999,"REV_AT_EPOCH":7961,"BSTAR":-7.6267638e-5,"MEAN_MOTION_DOT":-2.615e-5,"MEAN_MOTION_DDOT":0}]
